NORAD_CAT_ID,OBJECT_NAME,OBJECT_TYPE,EPOCH,MEAN_MOTION,ECCENTRICITY,INCLINATION,RA_OF_ASC_NODE,ARG_OF_PERICENTER,MEAN_ANOMALY,BSTAR,MEAN_MOTION_DOT,MEAN_MOTION_DDOT,TLE_LINE0,TLE_LINE1,TLE_LINE2,SEMIMAJOR_AXIS,PERIOD,APOGEE,PERIGEE,DECAYED
54091.0,STARLINK-5221,PAYLOAD,2023-08-16 22:58:30,15.08838496,0.0001243,53.2163,214.5462,90.3756,269.7379,2.1916e-05,6.1e-07,0.0,0 STARLINK-5221,1 54091U 22136AS  23228.95730252  .00000061  00000-0  21916-4 0  9993,2 54091  53.2163 214.5462 0001243  90.3756 269.7379 15.08838496 46190,6917.885,95.438,540.61,538.89,0.0
54091.0,STARLINK-5221,PAYLOAD,2023-08-18 02:00:04,15.08837594,0.0001254,53.2162,209.4905,92.2037,267.9099,2.1903e-05,6.1e-07,0.0,0 STARLINK-5221,1 54091U 22136AS  23230.08338345  .00000061  00000-0  21903-4 0  9993,2 54091  53.2162 209.4905 0001254  92.2037 267.9099 15.08837594 46365,6917.888,95.438,540.62,538.885,0.0
54091.0,STARLINK-5221,PAYLOAD,2023-08-19 05:01:37,15.08844154,0.0001324,53.2166,204.436,90.9624,269.152,9.2601e-05,1.186e-05,0.0,0 STARLINK-5221,1 54091U 22136AS  23231.20945789  .00001186  00000-0  92601-4 0  9996,2 54091  53.2166 204.4360 0001324  90.9624 269.1520 15.08844154 46536,6917.868,95.437,540.649,538.817,0.0
54091.0,STARLINK-5221,PAYLOAD,2023-08-20 03:17:01,15.08835408,0.0001155,53.2171,200.2741,72.3395,287.7723,4.6943e-05,4.59e-06,0.0,0 STARLINK-5221,1 54091U 22136AS  23232.13682690  .00000459  00000-0  46943-4 0  9998,2 54091  53.2171 200.2741 0001155  72.3395 287.7723 15.08835408 46678,6917.894,95.438,540.558,538.96,0.0
54091.0,STARLINK-5221,PAYLOAD,2023-08-21 04:43:11,15.08840784,0.0001272,53.217,195.5157,93.9031,266.2107,2.4086e-05,9.5e-07,0.0,0 STARLINK-5221,1 54091U 22136AS  23233.19666582  .00000095  00000-0  24086-4 0  9997,2 54091  53.2170 195.5157 0001272  93.9031 266.2107 15.08840784 46839,6917.878,95.438,540.623,538.863,0.0
54091.0,STARLINK-5221,PAYLOAD,2023-08-22 04:33:59,15.08836637,0.0001329,53.2177,191.0558,96.0078,264.1066,5.151e-05,5.32e-06,0.0,0 STARLINK-5221,1 54091U 22136AS  23234.19027073  .00000532  00000-0  51510-4 0  9992,2 54091  53.2177 191.0558 0001329  96.0078 264.1066 15.08836637 46989,6917.891,95.438,540.675,538.836,0.0
54091.0,STARLINK-5221,PAYLOAD,2023-08-23 06:00:09,15.08840265,0.0001432,53.2178,186.2971,82.1907,277.9248,6.6775e-05,7.75e-06,0.0,0 STARLINK-5221,1 54091U 22136AS  23235.25011024  .00000775  00000-0  66775-4 0  9997,2 54091  53.2178 186.2971 0001432  82.1907 277.9248 15.08840265 47142,6917.88,95.438,540.735,538.754,0.0
54091.0,STARLINK-5221,PAYLOAD,2023-08-24 20:09:23,15.08852379,0.0001261,53.2174,179.1595,87.0768,273.0369,0.0001593,2.249e-05,0.0,0 STARLINK-5221,1 54091U 22136AS  23236.83985919  .00002249  00000-0  15930-3 0  9999,2 54091  53.2174 179.1595 0001261  87.0768 273.0369 15.08852379 46914,6917.843,95.437,540.58,538.835,0.0
54091.0,STARLINK-5221,PAYLOAD,2023-08-25 02:30:55,15.08865958,0.0001388,53.2169,177.9716,80.5536,279.5613,0.00017699,2.532e-05,0.0,0 STARLINK-5221,1 54091U 22136AS  23237.10480911  .00002532  00000-0  17699-3 0  9991,2 54091  53.2169 177.9716 0001388  80.5536 279.5613 15.08865958 47427,6917.801,95.436,540.626,538.706,0.0
54091.0,STARLINK-5221,PAYLOAD,2023-08-25 05:41:41,15.08868854,0.000136,53.217,177.3757,96.7057,263.409,0.00025308,3.745e-05,0.0,0 STARLINK-5221,1 54091U 22136AS  23237.23728287  .00003745  00000-0  25308-3 0  9999,2 54091  53.2170 177.3757 0001360  96.7057 263.4090 15.08868854 46973,6917.792,95.436,540.598,538.716,0.0
54091.0,STARLINK-5221,PAYLOAD,2023-08-25 20:00:11,15.08837358,0.0001175,53.2176,174.7007,82.0516,278.061,-5.102e-05,-1.1e-05,0.0,0 STARLINK-5221,1 54091U 22136AS  23237.83347154 -.00001100  00000-0 -51020-4 0  9991,2 54091  53.2176 174.7007 0001175  82.0516 278.0610 15.08837358 47538,6917.888,95.438,540.566,538.941,0.0
54091.0,STARLINK-5221,PAYLOAD,2023-08-26 05:32:30,15.08836816,0.0001195,53.2171,172.9151,103.3884,256.7241,-3.7137e-05,-8.79e-06,0.0,0 STARLINK-5221,1 54091U 22136AS  23238.23091244 -.00000879  00000-0 -37137-4 0  9997,2 54091  53.2171 172.9151 0001195 103.3884 256.7241 15.08836816 47126,6917.89,95.438,540.582,538.928,0.0
54091.0,STARLINK-5221,PAYLOAD,2023-08-27 00:37:08,15.08840372,0.0001321,53.2162,169.3461,104.1809,255.9329,-0.00012301,-2.245e-05,0.0,0 STARLINK-5221,1 54091U 22136AS  23239.02578719 -.00002245  00000-0 -12301-3 0  9996,2 54091  53.2162 169.3461 0001321 104.1809 255.9329 15.08840372 47712,6917.879,95.438,540.658,538.83,0.0
54091.0,STARLINK-5221,PAYLOAD,2023-08-27 03:47:54,15.08840607,0.0001089,53.2162,168.7516,96.2788,263.8328,-0.00011767,-2.16e-05,0.0,0 STARLINK-5221,1 54091U 22136AS  23239.15826732 -.00002160  00000-0 -11767-3 0  9992,2 54091  53.2162 168.7516 0001089  96.2788 263.8328 15.08840607 47262,6917.879,95.438,540.497,538.99,0.0
54091.0,STARLINK-5221,PAYLOAD,2023-08-27 19:41:46,15.0883087,0.000128,53.2162,165.7782,107.9668,252.1464,0.00018986,2.734e-05,0.0,0 STARLINK-5221,1 54091U 22136AS  23239.82067588  .00002734  00000-0  18986-3 0  9997,2 54091  53.2162 165.7782 0001280 107.9668 252.1464 15.08830870 47368,6917.908,95.438,540.659,538.888,0.0
54091.0,STARLINK-5221,PAYLOAD,2023-08-28 02:03:18,15.08835851,0.0001172,53.2162,164.5898,97.1686,262.9439,0.00024081,3.546e-05,0.0,0 STARLINK-5221,1 54091U 22136AS  23240.08563568  .00003546  00000-0  24081-3 0  9991,2 54091  53.2162 164.5898 0001172  97.1686 262.9439 15.08835851 47874,6917.893,95.438,540.569,538.947,0.0
54091.0,STARLINK-5221,PAYLOAD,2023-08-28 19:32:33,15.08834119,0.000149,53.2177,161.3234,112.3985,247.7165,8.1206e-05,1.004e-05,0.0,0 STARLINK-5221,1 54091U 22136AS  23240.81427944  .00001004  00000-0  81206-4 0  9999,2 54091  53.2177 161.3234 0001490 112.3985 247.7165 15.08834119 47518,6917.898,95.438,540.794,538.733,0.0
54091.0,STARLINK-5221,PAYLOAD,2023-08-29 03:29:29,15.08839523,0.0001426,53.2175,159.8358,100.1915,259.9238,0.00013062,1.791e-05,0.0,0 STARLINK-5221,1 54091U 22136AS  23241.14547757  .00001791  00000-0  13062-3 0  9998,2 54091  53.2175 159.8358 0001426 100.1915 259.9238 15.08839523 48030,6917.882,95.438,540.733,538.76,0.0
54091.0,STARLINK-5221,PAYLOAD,2023-08-29 19:23:21,15.08832717,0.0001381,53.2181,156.8619,92.6653,267.4498,1.3943e-05,-6.6e-07,0.0,0 STARLINK-5221,1 54091U 22136AS  23241.80788330 -.00000066  00000-0  13943-4 0  9999,2 54091  53.2181 156.8619 0001381  92.6653 267.4498 15.08832717 47666,6917.903,95.438,540.723,538.812,0.0
54091.0,STARLINK-5221,PAYLOAD,2023-08-30 00:09:30,15.08834771,0.0001457,53.2178,155.9691,90.6096,269.5063,2.3862e-05,9.2e-07,0.0,0 STARLINK-5221,1 54091U 22136AS  23242.00660288  .00000092  00000-0  23862-4 0  9992,2 54091  53.2178 155.9691 0001457  90.6096 269.5063 15.08834771 48164,6917.896,95.438,540.769,538.753,0.0
54091.0,STARLINK-5221,PAYLOAD,2023-08-30 11:17:12,15.088391,0.0001304,53.2169,153.8855,94.0765,266.0376,4.8116e-05,4.78e-06,0.0,0 STARLINK-5221,1 54091U 22136AS  23242.47028045  .00000478  00000-0  48116-4 0  9999,2 54091  53.2169 153.8855 0001304  94.0765 266.0376 15.08839100 47760,6917.883,95.438,540.65,538.846,0.0
54091.0,STARLINK-5221,PAYLOAD,2023-08-31 04:46:26,15.08847403,0.0001381,53.217,150.6129,99.7225,260.3924,0.00016338,2.314e-05,0.0,0 STARLINK-5221,1 54091U 22136AS  23243.19891659  .00002314  00000-0  16338-3 0  9999,2 54091  53.2170 150.6129 0001381  99.7225 260.3924 15.08847403 48345,6917.858,95.437,540.678,538.767,0.0
54091.0,STARLINK-5221,PAYLOAD,2023-09-01 10:58:46,15.08844091,0.0001011,53.2163,144.964,93.876,266.2348,9.03e-05,1.15e-05,0.0,0 STARLINK-5221,1 54091U 22136AS  23244.45747781  .00001150  00000-0  90300-4 0  9994,2 54091  53.2163 144.9640 0001011  93.8760 266.2348 15.08844091 48536,6917.868,95.437,540.432,539.033,0.0
54091.0,STARLINK-5221,PAYLOAD,2023-09-02 10:49:33,15.08835951,0.0001943,53.2135,140.5025,93.3219,266.7996,2.8935e-05,1.72e-06,0.0,0 STARLINK-5221,1 54091U 22136AS  23245.45108294  .00000172  00000-0  28935-4 0  9993,2 54091  53.2135 140.5025 0001943  93.3219 266.7996 15.08835951 48216,6917.893,95.438,541.102,538.414,0.0
54091.0,STARLINK-5221,PAYLOAD,2023-09-03 02:43:24,15.08842152,0.0001378,53.2167,137.5269,107.1725,252.9418,0.00012156,1.647e-05,0.0,0 STARLINK-5221,1 54091U 22136AS  23246.11347954  .00001647  00000-0  12156-3 0  9990,2 54091  53.2167 137.5269 0001378 107.1725 252.9418 15.08842152 48313,6917.874,95.437,540.692,538.786,0.0
54091.0,STARLINK-5221,PAYLOAD,2023-09-04 02:34:12,15.08838682,0.0001671,53.216,133.0687,89.7664,270.352,0.00021791,3.182e-05,0.0,0 STARLINK-5221,1 54091U 22136AS  23247.10708445  .00003182  00000-0  21791-3 0  9997,2 54091  53.2160 133.0687 0001671  89.7664 270.3520 15.08838682 48933,6917.884,95.438,540.905,538.593,0.0
54091.0,STARLINK-5221,PAYLOAD,2023-09-04 08:55:44,15.08836403,0.0001587,53.2161,131.8794,88.0163,272.1011,0.00014688,2.05e-05,0.0,0 STARLINK-5221,1 54091U 22136AS  23247.37204643  .00002050  00000-0  14688-3 0  9997,2 54091  53.2161 131.8794 0001587  88.0163 272.1011 15.08836403 48508,6917.891,95.438,540.854,538.659,0.0
54091.0,STARLINK-5221,PAYLOAD,2023-09-05 00:49:36,15.08839441,0.0001354,53.2165,128.906,92.5397,267.5751,9.8628e-05,1.282e-05,0.0,0 STARLINK-5221,1 54091U 22136AS  23248.03444560  .00001282  00000-0  98628-4 0  9998,2 54091  53.2165 128.9060 0001354  92.5397 267.5751 15.08839441 49073,6917.882,95.438,540.684,538.81,0.0
54091.0,STARLINK-5221,PAYLOAD,2023-09-05 15:07:58,15.0892535,2.59e-05,53.2165,126.2291,80.5529,279.5492,0.0011496,0.00018098,0.0,0 STARLINK-5221,1 54091U 22136AS  23248.63053784  .00018098  00000-0  11496-2 0  9997,2 54091  53.2165 126.2291 0000259  80.5529 279.5492 15.08925350 49167,6917.62,95.432,539.664,539.305,0.0
54091.0,STARLINK-5221,PAYLOAD,2023-09-06 02:15:16,15.09317663,0.0001221,53.2165,124.1471,121.5279,238.5833,0.0059324,0.00096682,0.0,0 STARLINK-5221,1 54091U 22136AS  23249.09394484  .00096682  00000-0  59324-2 0  9990,2 54091  53.2165 124.1471 0001221 121.5279 238.5833 15.09317663 49237,6916.421,95.407,539.13,537.441,0.0
